STARLINK-3922           
1 52584U 22051BA  26068.41292734 -.00000464  00000+0 -11077-4 0  9993
2 52584  53.2167 120.3627 0001409  98.0258 262.0895 15.08838869211548
YAM-8                   
1 63254U 25052AW  26068.73092778  .00007810  00000+0  47267-3 0  9993
2 63254  97.7023 329.5345 0002369 152.6796 207.4558 15.10898938 54245
